[{"OBJECT_NAME":"STARLINK-1797","OBJECT_ID":"2020-073AE","EPOCH":"2026-03-10T00:00:02.999808","MEAN_MOTION":15.54694059,"ECCENTRICITY":0.00036796,"INCLINATION":53.0441,"RA_OF_ASC_NODE":207.3106,"ARG_OF_PERICENTER":56.3273,"MEAN_ANOMALY":238.374,"EPHEMERIS_TYPE":0,"CLASSIFICATION_TYPE":"U","NORAD_CAT_ID":46698,"ELEMENT_SET_NO":999,"REV_AT_EPOCH":586,"BSTAR":0.0015545741,"MEAN_MOTION_DOT":0.0010587,"MEAN_MOTION_DDOT":0},{"OBJECT_NAME":"OBJECT C","OBJECT_ID":"2022-098C","EPOCH":"2026-03-09T22:40:01.259328","MEAN_MOTION":15.55729173,"ECCENTRICITY":0.00020778,"INCLINATION":97.5492,"RA_OF_ASC_NODE":192.7578,"ARG_OF_PERICENTER":48.6674,"MEAN_ANOMALY":311.4758,"EPHEMERIS_TYPE":0,"CLASSIFICATION_TYPE":"U","NORAD_CAT_ID":53446,"ELEMENT_SET_NO":999,"REV_AT_EPOCH":19916,"BSTAR":0.00087752054,"MEAN_MOTION_DOT":0.00060688,"MEAN_MOTION_DDOT":0}]
